[{"OBJECT_NAME":"ONEWEB-0582","OBJECT_ID":"2022-166H","EPOCH":"2026-03-09T23:15:17.554752","MEAN_MOTION":13.21825835,"ECCENTRICITY":0.00011596,"INCLINATION":87.9163,"RA_OF_ASC_NODE":263.7603,"ARG_OF_PERICENTER":87.0279,"MEAN_ANOMALY":273.0988,"EPHEMERIS_TYPE":0,"CLASSIFICATION_TYPE":"U","NORAD_CAT_ID":54649,"ELEMENT_SET_NO":999,"REV_AT_EPOCH":15841,"BSTAR":6.31832e-7,"MEAN_MOTION_DOT":1.3e-7,"MEAN_MOTION_DDOT":0},{"OBJECT_NAME":"THORAD DELTA 1 DEB","OBJECT_ID":"1974-089DZ","EPOCH":"2026-03-09T06:06:06.587424","MEAN_MOTION":13.33335464,"ECCENTRICITY":0.00780005,"INCLINATION":101.7633,"RA_OF_ASC_NODE":347.3256,"ARG_OF_PERICENTER":307.8438,"MEAN_ANOMALY":205.5308,"EPHEMERIS_TYPE":0,"CLASSIFICATION_TYPE":"U","NORAD_CAT_ID":9730,"ELEMENT_SET_NO":999,"REV_AT_EPOCH":42980,"BSTAR":0.006718892,"MEAN_MOTION_DOT":3.304e-5,"MEAN_MOTION_DDOT":0}]
